{"fetched_at":"2026-07-19T17:31:37.739Z","source":"https://celestrak.org/NORAD/elements/gp.php?NAME=ICEYE&FORMAT=JSON","constellation":"iceye","records":[{"OBJECT_NAME":"ICEYE-X72","OBJECT_ID":"2026-067CS","EPOCH":"2026-07-18T20:20:17.849184","CLASSIFICATION_TYPE":"U","MEAN_MOTION":14.96826079,"ECCENTRICITY":0.00009806,"INCLINATION":97.7652,"RA_OF_ASC_NODE":157.7933,"ARG_OF_PERICENTER":162.4599,"MEAN_ANOMALY":197.6656,"EPHEMERIS_TYPE":0,"NORAD_CAT_ID":68504,"ELEMENT_SET_NO":999,"REV_AT_EPOCH":1645,"BSTAR":0.008084705,"MEAN_MOTION_DOT":0.0009376,"MEAN_MOTION_DDOT":0},{"OBJECT_NAME":"ICEYE-X78","OBJECT_ID":"2026-100R","EPOCH":"2026-07-19T04:54:15.979968","CLASSIFICATION_TYPE":"U","MEAN_MOTION":14.91816157,"ECCENTRICITY":0.00033449,"INCLINATION":97.7327,"RA_OF_ASC_NODE":97.0612,"ARG_OF_PERICENTER":46.4658,"MEAN_ANOMALY":313.6838,"EPHEMERIS_TYPE":0,"NORAD_CAT_ID":68995,"ELEMENT_SET_NO":999,"REV_AT_EPOCH":1147,"BSTAR":0.000054410884,"MEAN_MOTION_DOT":0.00000494,"MEAN_MOTION_DDOT":0},{"OBJECT_NAME":"ICEYE-X82","OBJECT_ID":"2026-100S","EPOCH":"2026-07-19T05:27:21.577248","CLASSIFICATION_TYPE":"U","MEAN_MOTION":14.91434317,"ECCENTRICITY":0.00055894,"INCLINATION":97.7323,"RA_OF_ASC_NODE":97.0254,"ARG_OF_PERICENTER":54.1315,"MEAN_ANOMALY":306.0422,"EPHEMERIS_TYPE":0,"NORAD_CAT_ID":68996,"ELEMENT_SET_NO":999,"REV_AT_EPOCH":1147,"BSTAR":0.00010249714,"MEAN_MOTION_DOT":0.00000969,"MEAN_MOTION_DDOT":0}]}
