ICEYE-X72               
1 68504U 26067CS  26199.84742881  .00093760  00000+0  80847-2 0  9996
2 68504  97.7652 157.7933 0000980 162.4599 197.6656 14.96826079 16457
ICEYE-X78               
1 68995U 26100R   26200.20435162  .00000494  00000+0  54411-4 0  9994
2 68995  97.7327  97.0612 0003344  46.4658 313.6838 14.91816157 11474
ICEYE-X82               
1 68996U 26100S   26200.22733307  .00000969  00000+0  10250-3 0  9998
2 68996  97.7323  97.0254 0005589  54.1315 306.0422 14.91434317 11471
